CCSDS_OMM_VERS = 2.0
CREATION_DATE  = 
ORIGINATOR     = 

OBJECT_NAME    = DELTA 2 R/B(1)
OBJECT_ID      = 1990-008B
CENTER_NAME    = EARTH
REF_FRAME      = TEME
TIME_SYSTEM    = UTC
MEAN_ELEMENT_THEORY = SGP/SGP4

EPOCH          = 2025-12-17T08:05:53.585664
MEAN_MOTION    = 15.45590048
ECCENTRICITY   = .01112764
INCLINATION    = 35.6075
RA_OF_ASC_NODE = 350.8356
ARG_OF_PERICENTER = 220.4015
MEAN_ANOMALY   = 138.8411

EPHEMERIS_TYPE = 0
CLASSIFICATION_TYPE = U
NORAD_CAT_ID   = 20453
ELEMENT_SET_NO = 999
REV_AT_EPOCH   = 91334
BSTAR          = .58998148E-3
MEAN_MOTION_DOT = .37343E-3
MEAN_MOTION_DDOT = 0

CCSDS_OMM_VERS = 2.0
CREATION_DATE  = 
ORIGINATOR     = 

OBJECT_NAME    = COSMOS 2058
OBJECT_ID      = 1990-010A
CENTER_NAME    = EARTH
REF_FRAME      = TEME
TIME_SYSTEM    = UTC
MEAN_ELEMENT_THEORY = SGP/SGP4

EPOCH          = 2025-12-17T15:50:31.978176
MEAN_MOTION    = 15.10518777
ECCENTRICITY   = .00086872
INCLINATION    = 82.4682
RA_OF_ASC_NODE = 128.1903
ARG_OF_PERICENTER = 252.8071
MEAN_ANOMALY   = 107.2208

EPHEMERIS_TYPE = 0
CLASSIFICATION_TYPE = U
NORAD_CAT_ID   = 20465
ELEMENT_SET_NO = 999
REV_AT_EPOCH   = 92985
BSTAR          = .2666502E-3
MEAN_MOTION_DOT = .4424E-4
MEAN_MOTION_DDOT = 0

CCSDS_OMM_VERS = 2.0
CREATION_DATE  = 
ORIGINATOR     = 

OBJECT_NAME    = SL-14 R/B
OBJECT_ID      = 1990-010B
CENTER_NAME    = EARTH
REF_FRAME      = TEME
TIME_SYSTEM    = UTC
MEAN_ELEMENT_THEORY = SGP/SGP4

EPOCH          = 2025-12-17T11:12:30.782016
MEAN_MOTION    = 14.83475781
ECCENTRICITY   = .00190557
INCLINATION    = 82.5019
RA_OF_ASC_NODE = 344.6070
ARG_OF_PERICENTER = 206.7794
MEAN_ANOMALY   = 153.2439

EPHEMERIS_TYPE = 0
CLASSIFICATION_TYPE = U
NORAD_CAT_ID   = 20466
ELEMENT_SET_NO = 999
REV_AT_EPOCH   = 91629
BSTAR          = .48626277E-4
MEAN_MOTION_DOT = .424E-5
MEAN_MOTION_DDOT = 0

CCSDS_OMM_VERS = 2.0
CREATION_DATE  = 
ORIGINATOR     = 

OBJECT_NAME    = SL-14 R/B
OBJECT_ID      = 1990-018B
CENTER_NAME    = EARTH
REF_FRAME      = TEME
TIME_SYSTEM    = UTC
MEAN_ELEMENT_THEORY = SGP/SGP4

EPOCH          = 2025-12-17T14:35:58.903296
MEAN_MOTION    = 14.82051765
ECCENTRICITY   = .00166032
INCLINATION    = 82.5213
RA_OF_ASC_NODE = 299.8140
ARG_OF_PERICENTER = 7.8608
MEAN_ANOMALY   = 352.2863

EPHEMERIS_TYPE = 0
CLASSIFICATION_TYPE = U
NORAD_CAT_ID   = 20511
ELEMENT_SET_NO = 999
REV_AT_EPOCH   = 91042
BSTAR          = .52777865E-4
MEAN_MOTION_DOT = .443E-5
MEAN_MOTION_DDOT = 0

CCSDS_OMM_VERS = 2.0
CREATION_DATE  = 
ORIGINATOR     = 

OBJECT_NAME    = HST
OBJECT_ID      = 1990-037B
CENTER_NAME    = EARTH
REF_FRAME      = TEME
TIME_SYSTEM    = UTC
MEAN_ELEMENT_THEORY = SGP/SGP4

EPOCH          = 2025-12-17T02:27:39.181248
MEAN_MOTION    = 15.28113078
ECCENTRICITY   = .00018953
INCLINATION    = 28.4677
RA_OF_ASC_NODE = 242.7933
ARG_OF_PERICENTER = 295.0426
MEAN_ANOMALY   = 64.9973

EPHEMERIS_TYPE = 0
CLASSIFICATION_TYPE = U
NORAD_CAT_ID   = 20580
ELEMENT_SET_NO = 999
REV_AT_EPOCH   = 76066
BSTAR          = .20311482E-3
MEAN_MOTION_DOT = .5953E-4
MEAN_MOTION_DDOT = 0

CCSDS_OMM_VERS = 2.0
CREATION_DATE  = 
ORIGINATOR     = 

OBJECT_NAME    = SL-16 R/B
OBJECT_ID      = 1990-046B
CENTER_NAME    = EARTH
REF_FRAME      = TEME
TIME_SYSTEM    = UTC
MEAN_ELEMENT_THEORY = SGP/SGP4

EPOCH          = 2025-12-17T14:58:06.263904
MEAN_MOTION    = 14.15000046
ECCENTRICITY   = .00119255
INCLINATION    = 70.9992
RA_OF_ASC_NODE = 110.2651
ARG_OF_PERICENTER = 64.4861
MEAN_ANOMALY   = 295.7494

EPHEMERIS_TYPE = 0
CLASSIFICATION_TYPE = U
NORAD_CAT_ID   = 20625
ELEMENT_SET_NO = 999
REV_AT_EPOCH   = 83678
BSTAR          = -.10999064E-3
MEAN_MOTION_DOT = -.261E-5
MEAN_MOTION_DDOT = 0

CCSDS_OMM_VERS = 2.0
CREATION_DATE  = 
ORIGINATOR     = 

OBJECT_NAME    = COSMOS 2084
OBJECT_ID      = 1990-055A
CENTER_NAME    = EARTH
REF_FRAME      = TEME
TIME_SYSTEM    = UTC
MEAN_ELEMENT_THEORY = SGP/SGP4

EPOCH          = 2025-12-17T11:37:59.738016
MEAN_MOTION    = 15.05047936
ECCENTRICITY   = .00309606
INCLINATION    = 62.7903
RA_OF_ASC_NODE = 255.8249
ARG_OF_PERICENTER = 175.2592
MEAN_ANOMALY   = 184.8808

EPHEMERIS_TYPE = 0
CLASSIFICATION_TYPE = U
NORAD_CAT_ID   = 20663
ELEMENT_SET_NO = 999
REV_AT_EPOCH   = 92394
BSTAR          = .16814652E-3
MEAN_MOTION_DOT = .2219E-4
MEAN_MOTION_DDOT = 0

CCSDS_OMM_VERS = 2.0
CREATION_DATE  = 
ORIGINATOR     = 

OBJECT_NAME    = SL-6 R/B(2)
OBJECT_ID      = 1990-055D
CENTER_NAME    = EARTH
REF_FRAME      = TEME
TIME_SYSTEM    = UTC
MEAN_ELEMENT_THEORY = SGP/SGP4

EPOCH          = 2025-12-17T14:58:21.017568
MEAN_MOTION    = 15.03095755
ECCENTRICITY   = .00131985
INCLINATION    = 62.7810
RA_OF_ASC_NODE = 172.8199
ARG_OF_PERICENTER = 312.1849
MEAN_ANOMALY   = 47.8128

EPHEMERIS_TYPE = 0
CLASSIFICATION_TYPE = U
NORAD_CAT_ID   = 20666
ELEMENT_SET_NO = 999
REV_AT_EPOCH   = 92585
BSTAR          = .13693447E-3
MEAN_MOTION_DOT = .1661E-4
MEAN_MOTION_DDOT = 0

CCSDS_OMM_VERS = 2.0
CREATION_DATE  = 
ORIGINATOR     = 

OBJECT_NAME    = SL-8 R/B
OBJECT_ID      = 1990-078B
CENTER_NAME    = EARTH
REF_FRAME      = TEME
TIME_SYSTEM    = UTC
MEAN_ELEMENT_THEORY = SGP/SGP4

EPOCH          = 2025-12-17T10:40:00.702048
MEAN_MOTION    = 14.86129636
ECCENTRICITY   = .03711721
INCLINATION    = 82.9043
RA_OF_ASC_NODE = 325.0983
ARG_OF_PERICENTER = 290.0671
MEAN_ANOMALY   = 66.0959

EPHEMERIS_TYPE = 0
CLASSIFICATION_TYPE = U
NORAD_CAT_ID   = 20775
ELEMENT_SET_NO = 999
REV_AT_EPOCH   = 79707
BSTAR          = .50740378E-3
MEAN_MOTION_DOT = .16406E-3
MEAN_MOTION_DDOT = 0

CCSDS_OMM_VERS = 2.0
CREATION_DATE  = 
ORIGINATOR     = 

OBJECT_NAME    = SL-8 R/B
OBJECT_ID      = 1991-006B
CENTER_NAME    = EARTH
REF_FRAME      = TEME
TIME_SYSTEM    = UTC
MEAN_ELEMENT_THEORY = SGP/SGP4

EPOCH          = 2025-12-17T14:49:15.788640
MEAN_MOTION    = 13.77490778
ECCENTRICITY   = .00211739
INCLINATION    = 82.9422
RA_OF_ASC_NODE = 231.0848
ARG_OF_PERICENTER = 265.3386
MEAN_ANOMALY   = 156.1085

EPHEMERIS_TYPE = 0
CLASSIFICATION_TYPE = U
NORAD_CAT_ID   = 21088
ELEMENT_SET_NO = 999
REV_AT_EPOCH   = 75277
BSTAR          = .76432573E-4
MEAN_MOTION_DOT = .91E-6
MEAN_MOTION_DDOT = 0

CCSDS_OMM_VERS = 2.0
CREATION_DATE  = 
ORIGINATOR     = 

OBJECT_NAME    = OKEAN-3
OBJECT_ID      = 1991-039A
CENTER_NAME    = EARTH
REF_FRAME      = TEME
TIME_SYSTEM    = UTC
MEAN_ELEMENT_THEORY = SGP/SGP4

EPOCH          = 2025-12-17T14:31:15.341952
MEAN_MOTION    = 15.04153194
ECCENTRICITY   = .001332
INCLINATION    = 82.5181
RA_OF_ASC_NODE = 56.3389
ARG_OF_PERICENTER = 247.8864
MEAN_ANOMALY   = 112.0949

EPHEMERIS_TYPE = 0
CLASSIFICATION_TYPE = U
NORAD_CAT_ID   = 21397
ELEMENT_SET_NO = 999
REV_AT_EPOCH   = 85269
BSTAR          = .20754076E-3
MEAN_MOTION_DOT = .291E-4
MEAN_MOTION_DDOT = 0

CCSDS_OMM_VERS = 2.0
CREATION_DATE  = 
ORIGINATOR     = 

OBJECT_NAME    = COSMOS 2151
OBJECT_ID      = 1991-042A
CENTER_NAME    = EARTH
REF_FRAME      = TEME
TIME_SYSTEM    = UTC
MEAN_ELEMENT_THEORY = SGP/SGP4

EPOCH          = 2025-12-17T13:27:18.893376
MEAN_MOTION    = 14.99704384
ECCENTRICITY   = .00121749
INCLINATION    = 82.4962
RA_OF_ASC_NODE = 162.8574
ARG_OF_PERICENTER = 343.2286
MEAN_ANOMALY   = 16.8533

EPHEMERIS_TYPE = 0
CLASSIFICATION_TYPE = U
NORAD_CAT_ID   = 21422
ELEMENT_SET_NO = 999
REV_AT_EPOCH   = 85088
BSTAR          = .14416878E-3
MEAN_MOTION_DOT = .1807E-4
MEAN_MOTION_DDOT = 0

