DELTA 2 R/B(1)          
1 20453U 90008B   25351.33742576  .00037343  00000+0  58998-3 0  9995
2 20453  35.6075 350.8356 0111276 220.4015 138.8411 15.45590048913341
COSMOS 2058             
1 20465U 90010A   25351.66009234  .00004424  00000+0  26665-3 0  9994
2 20465  82.4682 128.1903 0008687 252.8071 107.2208 15.10518777929852
SL-14 R/B               
1 20466U 90010B   25351.46702294  .00000424  00000+0  48626-4 0  9997
2 20466  82.5019 344.6070 0019055 206.7794 153.2439 14.83475781916296
SL-14 R/B               
1 20511U 90018B   25351.60832064  .00000443  00000+0  52778-4 0  9995
2 20511  82.5213 299.8140 0016603   7.8608 352.2863 14.82051765910424
HST                     
1 20580U 90037B   25351.10253682  .00005953  00000+0  20311-3 0  9998
2 20580  28.4677 242.7933 0001895 295.0426  64.9973 15.28113078760661
SL-16 R/B               
1 20625U 90046B   25351.62368361 -.00000261  00000+0 -10999-3 0  9996
2 20625  70.9992 110.2651 0011925  64.4861 295.7494 14.15000046836789
COSMOS 2084             
1 20663U 90055A   25351.48471919  .00002219  00000+0  16815-3 0  9992
2 20663  62.7903 255.8249 0030960 175.2592 184.8808 15.05047936923944
SL-6 R/B(2)             
1 20666U 90055D   25351.62385437  .00001661  00000+0  13693-3 0  9991
2 20666  62.7810 172.8199 0013198 312.1849  47.8128 15.03095755925852
SL-8 R/B                
1 20775U 90078B   25351.44445257  .00016406  00000+0  50740-3 0  9991
2 20775  82.9043 325.0983 0371172 290.0671  66.0959 14.86129636797076
SL-8 R/B                
1 21088U 91006B   25351.61754385  .00000091  00000+0  76433-4 0  9996
2 21088  82.9422 231.0848 0021173 265.3386 156.1085 13.77490778752778
OKEAN-3                 
1 21397U 91039A   25351.60503868  .00002910  00000+0  20754-3 0  9998
2 21397  82.5181  56.3389 0013320 247.8864 112.0949 15.04153194852690
COSMOS 2151             
1 21422U 91042A   25351.56063534  .00001807  00000+0  14417-3 0  9990
2 21422  82.4962 162.8574 0012174 343.2286  16.8533 14.99704384850884
